DUCHIFAT-1              
1 40021U 14033M   26129.87758779  .00055203  00000+0  73440-3 0  9991
2 40021  98.0512 183.8824 0005628 195.0868 165.0219 15.57990132649775
NANOSATC-BR1            
1 40024U 14033Q   26129.63907074  .00011841  00000+0  40739-3 0  9997
2 40024  98.0758 158.6464 0002197 343.1492  16.9673 15.30245707648080
QB50P1                  
1 40025U 14033R   26129.98242224  .00006117  00000+0  30723-3 0  9997
2 40025  98.0987 138.4674 0008655   9.1210 351.0178 15.17667201647237
DTUSAT-2                
1 40030U 14033W   26129.92382932  .00005465  00000+0  30051-3 0  9997
2 40030  98.0873 125.2396 0008202  19.1909 340.9629 15.14518548646891
QB50P2                  
1 40032U 14033Y   26129.92170983  .00005421  00000+0  29691-3 0  9990
2 40032  98.0760 124.4378 0006047 315.6641  44.4105 15.14670681646871
PERSEUS-M1              
1 40039U 14033AF  26129.83304737  .00001096  00000+0  10433-3 0  9991
2 40039  97.9623  73.3450 0012926  67.5453 292.7134 14.95500822644903
POLYITAN-1              
1 40042U 14033AJ  26129.79088125  .00012654  00000+0  41269-3 0  9993
2 40042  98.0980 152.4592 0005360 281.1819  78.8818 15.31948174647716
TIGRISAT                
1 40043U 14033AK  26129.91238506  .00001665  00000+0  19745-3 0  9992
2 40043  97.7787 280.8161 0049040 198.6362 161.3059 14.84998858639946
CANX-4                  
1 40055U 14034C   26129.91727827  .00000613  00000+0  86058-4 0  9999
2 40055  98.3174   3.8175 0013756 130.2600 229.9816 14.81193306638860
CANX-5                  
1 40056U 14034D   26129.64594032  .00000638  00000+0  89215-4 0  9995
2 40056  98.3175   3.5773 0013732 131.2810 228.9586 14.81210008629638
GONETS-M 10             
1 40063U 14036C   26129.99703635 -.00000099  00000+0 -78309-3 0  9998
2 40063  82.5113 331.4030 0021094 224.0603 135.8797 12.42944095537502
METEOR-M 2              
1 40069U 14037A   26129.92364358  .00000080  00000+0  55723-4 0  9997
2 40069  98.5100 107.0231 0006351 138.2421 221.9243 14.21450779613883
DX1                     
1 40071U 14037C   26129.94688458  .00000712  00000+0  80588-4 0  9991
2 40071  98.3845  89.3392 0008190  44.0111 316.1756 14.89863499640419
UKUBE-1                 
1 40074U 14037F   26129.94794376  .00006099  00000+0  35039-3 0  9995
2 40074  98.4250 129.2239 0000537  41.1763 318.9506 15.12943280642773
GAOFEN-2                
1 40118U 14049A   26129.93253023  .00000377  00000+0  55708-4 0  9994
2 40118  98.0124 194.1724 0007482   8.8055 351.3287 14.80858115633579
BRITE-PL2 (HEWELIUSZ)   
1 40119U 14049B   26129.87542900  .00001268  00000+0  12299-3 0  9990
2 40119  97.9055 241.5937 0012884 233.2047 126.7991 14.94451300635726
CBERS 4                 
1 40336U 14079A   26129.97979937 -.00000037  00000+0  16890-5 0  9996
2 40336  98.3552 188.0045 0001928 107.2137 252.9260 14.35498071598478
SMAP                    
1 40376U 15003A   26129.99437645  .00000295  00000+0  66035-4 0  9995
2 40376  98.1287 137.6286 0001471  70.0215 290.1146 14.63405026602033
GONETS-M 11             
1 40552U 15020A   26130.01347100 -.00000021  00000+0 -22086-3 0  9997
2 40552  82.4873  54.7741 0017378  84.3239 275.9821 12.42875391503995
GONETS-M 12             
1 40553U 15020B   26129.90690319  .00000018  00000+0  57038-4 0  9997
2 40553  82.4906  55.9543 0016420  70.3151 289.9699 12.42889990503977
GONETS-M 13             
1 40554U 15020C   26129.96023708  .00000039  00000+0  21253-3 0  9998
2 40554  82.4870  54.5472 0015005  56.2066 304.0440 12.42868825503955
DMC3-FM1                
1 40715U 15032A   26129.95104358  .00000086  00000+0  15803-4 0  9997
2 40715  97.6510 356.6163 0005535 163.4463 196.6935 14.85694884584230
DMC3-FM2                
1 40716U 15032B   26129.90587830  .00000321  00000+0  42875-4 0  9994
2 40716  97.6563 358.1201 0005884 171.0469 189.0853 14.85698656584222
DMC3-FM3                
1 40717U 15032C   26129.92896973  .00001048  00000+0  12678-3 0  9992
2 40717  97.6615 359.8709 0005228 167.6116 192.5229 14.85700687584239
CARBONITE 1 (CBNT-1)    
1 40718U 15032D   26129.93924828  .00001905  00000+0  23746-3 0  9995
2 40718  97.6505 309.6139 0015924  62.8039 297.4797 14.83473245583679
LILACSAT-2              
1 40908U 15049K   26130.00826487  .00012386  00000+0  22098-3 0  9990
2 40908  97.4704 165.4275 0007914  46.5117 313.6791 15.50189366589836
