OBJECT_NAME,OBJECT_ID,EPOCH,MEAN_MOTION,ECCENTRICITY,INCLINATION,RA_OF_ASC_NODE,ARG_OF_PERICENTER,MEAN_ANOMALY,EPHEMERIS_TYPE,CLASSIFICATION_TYPE,NORAD_CAT_ID,ELEMENT_SET_NO,REV_AT_EPOCH,BSTAR,MEAN_MOTION_DOT,MEAN_MOTION_DDOT
DUCHIFAT-1,2014-033M,2026-05-09T21:03:43.585056,15.57990132,.00056285,98.0512,183.8824,195.0868,165.0219,0,U,40021,999,64977,.73440287E-3,.55203E-3,0
NANOSATC-BR1,2014-033Q,2026-05-09T15:20:15.711936,15.30245707,.00021979,98.0758,158.6464,343.1492,16.9673,0,U,40024,999,64808,.40739139E-3,.11841E-3,0
QB50P1,2014-033R,2026-05-09T23:34:41.281536,15.17667201,.00086558,98.0987,138.4674,9.1210,351.0178,0,U,40025,999,64723,.30722772E-3,.6117E-4,0
DTUSAT-2,2014-033W,2026-05-09T22:10:18.853248,15.14518548,.00082027,98.0873,125.2396,19.1909,340.9629,0,U,40030,999,64689,.3005108E-3,.5465E-4,0
QB50P2,2014-033Y,2026-05-09T22:07:15.729312,15.14670681,.00060476,98.0760,124.4378,315.6641,44.4105,0,U,40032,999,64687,.29690609E-3,.5421E-4,0
PERSEUS-M1,2014-033AF,2026-05-09T19:59:35.292768,14.95500822,.00129269,97.9623,73.3450,67.5453,292.7134,0,U,40039,999,64490,.10432968E-3,.1096E-4,0
POLYITAN-1,2014-033AJ,2026-05-09T18:58:52.140000,15.31948174,.00053609,98.0980,152.4592,281.1819,78.8818,0,U,40042,999,64771,.41268735E-3,.12654E-3,0
TIGRISAT,2014-033AK,2026-05-09T21:53:50.069184,14.84998858,.00490409,97.7787,280.8161,198.6362,161.3059,0,U,40043,999,63994,.19745359E-3,.1665E-4,0
CANX-4,2014-034C,2026-05-09T22:00:52.842528,14.81193306,.00137568,98.3174,3.8175,130.2600,229.9816,0,U,40055,999,63886,.86057682E-4,.613E-5,0
CANX-5,2014-034D,2026-05-09T15:30:09.243648,14.81210008,.00137325,98.3175,3.5773,131.2810,228.9586,0,U,40056,999,62963,.89214531E-4,.638E-5,0
GONETS-M 10,2014-036C,2026-05-09T23:55:43.940640,12.42944095,.00210948,82.5113,331.4030,224.0603,135.8797,0,U,40063,999,53750,-.78308651E-3,-.99E-6,0
METEOR-M 2,2014-037A,2026-05-09T22:10:02.805312,14.21450779,.00063519,98.5100,107.0231,138.2421,221.9243,0,U,40069,999,61388,.55723169E-4,.8E-6,0
DX1,2014-037C,2026-05-09T22:43:30.827712,14.89863499,.00081906,98.3845,89.3392,44.0111,316.1756,0,U,40071,999,64041,.80587521E-4,.712E-5,0
UKUBE-1,2014-037F,2026-05-09T22:45:02.340864,15.12943280,.00005377,98.4250,129.2239,41.1763,318.9506,0,U,40074,999,64277,.35038858E-3,.6099E-4,0
GAOFEN-2,2014-049A,2026-05-09T22:22:50.611872,14.80858115,.00074824,98.0124,194.1724,8.8055,351.3287,0,U,40118,999,63357,.55708026E-4,.377E-5,0
BRITE-PL2 (HEWELIUSZ),2014-049B,2026-05-09T21:00:37.065600,14.94451300,.00128844,97.9055,241.5937,233.2047,126.7991,0,U,40119,999,63572,.12298571E-3,.1268E-4,0
CBERS 4,2014-079A,2026-05-09T23:30:54.665568,14.35498071,.00019288,98.3552,188.0045,107.2137,252.9260,0,U,40336,999,59847,.1688954E-5,-.37E-6,0
SMAP,2015-003A,2026-05-09T23:51:54.125280,14.63405026,.00014716,98.1287,137.6286,70.0215,290.1146,0,U,40376,999,60203,.66035202E-4,.295E-5,0
GONETS-M 11,2015-020A,2026-05-10T00:19:23.894400,12.42875391,.00173785,82.4873,54.7741,84.3239,275.9821,0,U,40552,999,50399,-.22085563E-3,-.21E-6,0
GONETS-M 12,2015-020B,2026-05-09T21:45:56.435616,12.42889990,.00164205,82.4906,55.9543,70.3151,289.9699,0,U,40553,999,50397,.57037948E-4,.18E-6,0
GONETS-M 13,2015-020C,2026-05-09T23:02:44.483712,12.42868825,.00150055,82.4870,54.5472,56.2066,304.0440,0,U,40554,999,50395,.21252731E-3,.39E-6,0
DMC3-FM1,2015-032A,2026-05-09T22:49:30.165312,14.85694884,.00055355,97.6510,356.6163,163.4463,196.6935,0,U,40715,999,58423,.15803158E-4,.86E-6,0
DMC3-FM2,2015-032B,2026-05-09T21:44:27.885120,14.85698656,.00058845,97.6563,358.1201,171.0469,189.0853,0,U,40716,999,58422,.42874969E-4,.321E-5,0
DMC3-FM3,2015-032C,2026-05-09T22:17:42.984672,14.85700687,.00052281,97.6615,359.8709,167.6116,192.5229,0,U,40717,999,58423,.12677661E-3,.1048E-4,0
CARBONITE 1 (CBNT-1),2015-032D,2026-05-09T22:32:31.051392,14.83473245,.00159246,97.6505,309.6139,62.8039,297.4797,0,U,40718,999,58367,.23745529E-3,.1905E-4,0
LILACSAT-2,2015-049K,2026-05-10T00:11:54.084768,15.50189366,.00079148,97.4704,165.4275,46.5117,313.6791,0,U,40908,999,58983,.2209767E-3,.12386E-3,0
